{
  "norad_id": 66544,
  "name": "STARLINK-35728",
  "history": [
    {
      "epoch": "2026-03-28T16:51:23.231808Z",
      "apogee_km": 483.8813086990858,
      "perigee_km": 481.7700532628942,
      "latitude_deg": 4.2058434737734184e-05,
      "longitude_deg": 91.37533986282499,
      "height_km": 482.2864153127925,
      "semi_major_axis_km": 6860.96268098099,
      "eccentricity": 0.00015386,
      "inclination_deg": 43.0022,
      "raan_deg": 170.3411,
      "arg_perigee_deg": 287.4356,
      "mean_anomaly_deg": 72.6328,
      "mean_motion_rev_day": 15.27654615
    },
    {
      "epoch": "2026-03-29T05:24:38.136096Z",
      "apogee_km": 484.3884528197814,
      "perigee_km": 481.5506991399561,
      "latitude_deg": 1.865370039122789e-05,
      "longitude_deg": -100.40886650919867,
      "height_km": 482.7786512936721,
      "semi_major_axis_km": 6861.1065759798685,
      "eccentricity": 0.0002068,
      "inclination_deg": 43.0021,
      "raan_deg": 167.3846,
      "arg_perigee_deg": 268.7228,
      "mean_anomaly_deg": 91.3387,
      "mean_motion_rev_day": 15.27606557
    },
    {
      "epoch": "2026-03-30T04:56:59.349408Z",
      "apogee_km": 483.83093058710256,
      "perigee_km": 482.2252807290761,
      "latitude_deg": -3.946609769270691e-05,
      "longitude_deg": -100.00563831942819,
      "height_km": 483.2053240741739,
      "semi_major_axis_km": 6861.165105658089,
      "eccentricity": 0.00011701,
      "inclination_deg": 42.9969,
      "raan_deg": 161.843,
      "arg_perigee_deg": 120.1565,
      "mean_anomaly_deg": 239.9402,
      "mean_motion_rev_day": 15.2758701
    },
    {
      "epoch": "2026-03-30T14:21:55.572768Z",
      "apogee_km": 483.8644670044341,
      "perigee_km": 482.1718200305295,
      "latitude_deg": 2.8574841187142038e-05,
      "longitude_deg": 116.16188502463723,
      "height_km": 482.85033126687784,
      "semi_major_axis_km": 6861.1551435174815,
      "eccentricity": 0.00012335,
      "inclination_deg": 43.0011,
      "raan_deg": 159.6314,
      "arg_perigee_deg": 266.2388,
      "mean_anomaly_deg": 93.8323,
      "mean_motion_rev_day": 15.27590337
    }
  ]
}